      2.10          N: GNSS NAV DATA                        RINEX VERSION / TYPE
fic2rin                                 11/24/2020 00:17:20 PGM / RUN BY / DATE
                                                            END OF HEADER
14 20 11 23  4  0  0.0 3.267079591751e-05 6.286882126005e-11 0.000000000000e+00
    7.500000000000e+01 1.296875000000e+01 4.757341019492e-09-1.364837672910e-01
    6.258487701416e-07 1.382286427543e-04 6.241723895073e-06 5.153733858109e+03
    1.008000000000e+05 5.029141902924e-08-2.236720441527e+00-1.862645149231e-09
    9.595206755447e-01 2.590937500000e+02 1.564086319479e+00-8.211413466902e-09
   -2.425101015191e-10 1.000000000000e+00 2.133000000000e+03 0.000000000000e+00
    2.400000000000e+00 6.300000000000e+01-2.328306436539e-09 7.500000000000e+01
    9.360000000000e+04 4.000000000000e+00
28 20 11 23  4  0  0.0 6.521283648908e-04-4.774847184308e-12 0.000000000000e+00
    1.210000000000e+02 1.418750000000e+01 4.310536694013e-09 2.613966797089e+00
    7.022172212601e-07 1.836394763086e-02 6.152316927910e-06 5.153667161942e+03
    1.008000000000e+05 3.036111593246e-07-2.190022978768e+00-5.960464477539e-08
    9.751660299565e-01 2.646250000000e+02-1.373424918649e+00-7.717464320509e-09
   -3.678724662220e-10 1.000000000000e+00 2.133000000000e+03 0.000000000000e+00
    4.850000000000e+00 0.000000000000e+00-1.117587089539e-08 1.210000000000e+02
    9.360000000000e+04 4.000000000000e+00
28 20 11 23  3 59 44.0 6.521237082779e-04-4.774847184308e-12 0.000000000000e+00
    4.000000000000e+00 1.418750000000e+01 4.310179536278e-09 2.611632800532e+00
    7.022172212601e-07 1.836394390557e-02 6.152316927910e-06 5.153667160034e+03
    1.007840000000e+05 3.036111593246e-07-2.190022858808e+00-5.960464477539e-08
    9.751660445857e-01 2.646250000000e+02-1.373424675805e+00-7.717107162775e-09
   -3.675153084878e-10 1.000000000000e+00 2.133000000000e+03 0.000000000000e+00
    2.400000000000e+00 0.000000000000e+00-1.117587089539e-08 4.000000000000e+00
    9.756000000000e+04 4.000000000000e+00
21 20 11 23  3 59 44.0 7.090345025063e-05 3.637978807092e-12 0.000000000000e+00
    3.000000000000e+00 1.606250000000e+01 4.603048878319e-09 2.161351855906e+00
    8.195638656616e-07 2.392672165297e-02 4.751607775688e-06 5.153759412766e+03
    1.007840000000e+05 3.501772880554e-07-2.589359236406e-01-5.587935447693e-09
    9.555185120385e-01 2.746875000000e+02-1.240865200891e+00-7.889614348391e-09
   -7.071723137082e-11 1.000000000000e+00 2.133000000000e+03 0.000000000000e+00
    2.400000000000e+00 0.000000000000e+00-1.024454832077e-08 3.000000000000e+00
    9.891000000000e+04 4.000000000000e+00
28 20 11 23  5 59 44.0 6.520892493427e-04-4.774847184308e-12 0.000000000000e+00
    5.000000000000e+00 1.646875000000e+01 4.251962825604e-09-2.621376671729e+00
    9.201467037201e-07 1.836408930831e-02 6.034970283508e-06 5.153666891098e+03
    1.079840000000e+05 1.564621925354e-07-2.190079602475e+00 2.328306436539e-07
    9.751644807263e-01 2.648125000000e+02-1.373416607812e+00-7.669605184127e-09
   -1.203621564241e-10 1.000000000000e+00 2.133000000000e+03 0.000000000000e+00
    2.400000000000e+00 0.000000000000e+00-1.117587089539e-08 5.000000000000e+00
    1.008000000000e+05 4.000000000000e+00
21 20 11 23  5 59 44.0 7.092952728271e-05 3.637978807092e-12 0.000000000000e+00
    1.600000000000e+01 2.134375000000e+01 4.603048878319e-09-3.071744229883e+00
    1.229345798492e-06 2.392514201347e-02 5.587935447693e-06 5.153762752533e+03
    1.079840000000e+05 3.036111593246e-07-2.589942457956e-01 3.837049007416e-07
    9.555187636604e-01 2.621562500000e+02-1.240825560199e+00-7.883899824644e-09
    2.114373786441e-10 1.000000000000e+00 2.133000000000e+03 0.000000000000e+00
    2.400000000000e+00 0.000000000000e+00-1.024454832077e-08 1.600000000000e+01
    1.008000000000e+05 4.000000000000e+00
 2 20 11 23  6  0  0.0-5.459273234010e-04-4.661160346586e-12 0.000000000000e+00
    6.200000000000e+01 2.037500000000e+01 4.714839249123e-09 9.597758889182e-01
    8.270144462585e-07 2.009616349824e-02 6.726011633873e-06 5.153560754776e+03
    1.080000000000e+05-3.222376108170e-07-2.602573950966e-01-2.328306436539e-07
    9.614502220666e-01 2.573125000000e+02-1.583234755580e+00-8.551070472123e-09
    1.421487782100e-10 1.000000000000e+00 2.133000000000e+03 0.000000000000e+00
    2.400000000000e+00 0.000000000000e+00-1.769512891769e-08 6.200000000000e+01
    1.008000000000e+05 4.000000000000e+00
 1 20 11 23  6  0  0.0 8.045528084040e-04-4.206412995700e-12 0.000000000000e+00
    5.400000000000e+01 1.490625000000e+01 4.190888853057e-09 7.371828485218e-01
    9.369105100632e-07 1.013251510449e-02 6.033107638359e-06 5.153697187424e+03
    1.080000000000e+05-3.539025783539e-08-1.803131381945e-01 1.173466444016e-07
    9.826149425651e-01 2.738125000000e+02 8.264530911457e-01-8.133553080847e-09
    5.643092200298e-11 1.000000000000e+00 2.133000000000e+03 0.000000000000e+00
    2.400000000000e+00 0.000000000000e+00 5.122274160385e-09 5.400000000000e+01
    1.008000000000e+05 4.000000000000e+00
 6 20 11 23  6  0  0.0-2.054497599602e-06-1.364242052659e-12 0.000000000000e+00
    4.000000000000e+00 1.584375000000e+01 4.123028883560e-09 1.160224799791e+00
    7.003545761108e-07 2.011194475926e-03 5.900859832764e-06 5.153659263611e+03
    1.080000000000e+05-1.117587089539e-08-1.885609913279e-01-8.381903171539e-08
    9.821269759993e-01 2.771562500000e+02-1.159903687810e+00-8.007476400676e-09
    1.650068731986e-10 1.000000000000e+00 2.133000000000e+03 0.000000000000e+00
    2.400000000000e+00 0.000000000000e+00 4.190951585770e-09 4.000000000000e+00
    1.008000000000e+05 4.000000000000e+00
 7 20 11 23  6  0  0.0-4.198700189590e-04-7.617018127348e-12 0.000000000000e+00
    3.300000000000e+01 4.621875000000e+01 4.883060541929e-09 7.130531017524e-02
    2.546235918999e-06 1.424596202560e-02 7.454305887222e-06 5.153625089645e+03
    1.080000000000e+05 2.235174179077e-08 2.962351361825e+00 2.719461917877e-07
    9.527001564713e-01 2.340625000000e+02-2.360020562249e+00-8.407135905242e-09
    1.985797002130e-10 1.000000000000e+00 2.133000000000e+03 0.000000000000e+00
    2.400000000000e+00 0.000000000000e+00-1.117587089539e-08 3.300000000000e+01
    1.008000000000e+05 4.000000000000e+00
 5 20 11 23  6  0  0.0-2.657668665051e-05-9.094947017729e-13 0.000000000000e+00
    8.200000000000e+01-6.050000000000e+01 4.821629411647e-09-2.689741184482e+00
   -3.108754754066e-06 6.059298873879e-03 5.465000867844e-06 5.153768941879e+03
    1.080000000000e+05 6.519258022308e-08 8.241368997642e-01-1.862645149231e-08
    9.541947876887e-01 2.708125000000e+02 8.953363122255e-01-8.239986085638e-09
   -9.071806448581e-11 1.000000000000e+00 2.133000000000e+03 0.000000000000e+00
    3.400000000000e+00 0.000000000000e+00-1.117587089539e-08 8.200000000000e+01
    1.008000000000e+05 4.000000000000e+00
 3 20 11 23  6  0  0.0-1.119915395975e-05-1.000444171950e-11 0.000000000000e+00
    7.800000000000e+01-5.406250000000e+01 4.545546483114e-09-4.590049059110e-01
   -2.883374691010e-06 3.256442607380e-03 5.768612027168e-06 5.153705610275e+03
    1.080000000000e+05-2.048909664154e-08 8.584993737506e-01 4.097819328308e-08
    9.672451755869e-01 2.701250000000e+02 9.017844337985e-01-8.176054851217e-09
   -1.171477368163e-10 1.000000000000e+00 2.133000000000e+03 0.000000000000e+00
    2.400000000000e+00 0.000000000000e+00 1.862645149231e-09 7.800000000000e+01
    1.008000000000e+05 4.000000000000e+00
 4 20 11 23  6  0  0.0-1.579155214131e-04-3.524291969370e-12 0.000000000000e+00
    5.800000000000e+01-2.075000000000e+01 4.428755904031e-09 2.428787067336e+00
   -1.087784767151e-06 9.325884748250e-04 9.955838322639e-06 5.153612529755e+03
    1.080000000000e+05-3.725290298462e-09 1.938586852415e+00-2.048909664154e-08
    9.599102082046e-01 1.880312500000e+02-3.049861368751e+00-7.906043604165e-09
   -1.928651764659e-11 1.000000000000e+00 2.133000000000e+03 0.000000000000e+00
    2.400000000000e+00 0.000000000000e+00-4.190951585770e-09 5.700000000000e+02
    1.008000000000e+05 4.000000000000e+00
16 20 11 23  6  0  0.0-2.403431572020e-04-5.343281372916e-12 0.000000000000e+00
    3.700000000000e+01 1.281250000000e+00 4.357681514926e-09-2.455930366832e+00
   -2.216547727585e-07 1.176674931776e-02 6.295740604401e-06 5.153605173111e+03
    1.080000000000e+05 7.264316082001e-08-2.193707422799e+00-2.179294824600e-07
    9.761106493266e-01 2.669375000000e+02 6.295899314620e-01-7.906043604165e-09
   -9.250385315679e-11 1.000000000000e+00 2.133000000000e+03 0.000000000000e+00
    2.400000000000e+00 0.000000000000e+00-1.071020960808e-08 3.700000000000e+01
    1.008000000000e+05 4.000000000000e+00
 9 20 11 23  6  0  0.0-2.929195761681e-04-4.547473508865e-12 0.000000000000e+00
    6.900000000000e+01-2.568750000000e+01 4.546975114050e-09-2.930744185785e+00
   -1.285225152969e-06 1.998661668040e-03 9.892508387566e-06 5.153615688324e+03
    1.080000000000e+05-2.235174179077e-08 1.889232936695e+00-4.470348358154e-08
    9.526727604044e-01 1.854687500000e+02 1.768791938678e+00-7.923901490874e-09
   -3.464430021702e-11 1.000000000000e+00 2.133000000000e+03 0.000000000000e+00
    2.400000000000e+00 0.000000000000e+00 1.396983861923e-09 6.900000000000e+01
    1.008000000000e+05 4.000000000000e+00
10 20 11 23  6  0  0.0-5.112560465932e-04-9.094947017729e-12 0.000000000000e+00
    5.900000000000e+01-5.687500000000e+01 4.467328939325e-09-1.253655600451e+00
   -3.041699528694e-06 6.184282945469e-03 5.472451448441e-06 5.153666328430e+03
    1.080000000000e+05 1.974403858185e-07 8.555362419585e-01-1.490116119385e-07
    9.671631439185e-01 2.791250000000e+02-2.654403413734e+00-8.051049644248e-09
   -1.367914121971e-10 1.000000000000e+00 2.133000000000e+03 0.000000000000e+00
    2.400000000000e+00 0.000000000000e+00 2.328306436539e-09 5.900000000000e+01
    1.008000000000e+05 4.000000000000e+00
